[{"OBJECT_NAME":"OBJECT J","OBJECT_ID":"2025-274J","EPOCH":"2026-03-09T17:32:53.019744","MEAN_MOTION":14.93551146,"ECCENTRICITY":0.00127149,"INCLINATION":97.743,"RA_OF_ASC_NODE":359.5505,"ARG_OF_PERICENTER":354.9543,"MEAN_ANOMALY":5.1546,"EPHEMERIS_TYPE":0,"CLASSIFICATION_TYPE":"U","NORAD_CAT_ID":66658,"ELEMENT_SET_NO":999,"REV_AT_EPOCH":1538,"BSTAR":0.00052680347,"MEAN_MOTION_DOT":5.506e-5,"MEAN_MOTION_DDOT":0},{"OBJECT_NAME":"SL-24 R\/B","OBJECT_ID":"2013-042B","EPOCH":"2026-03-09T12:40:44.242176","MEAN_MOTION":14.08721534,"ECCENTRICITY":0.04493882,"INCLINATION":97.5179,"RA_OF_ASC_NODE":292.5098,"ARG_OF_PERICENTER":125.3337,"MEAN_ANOMALY":239.0716,"EPHEMERIS_TYPE":0,"CLASSIFICATION_TYPE":"U","NORAD_CAT_ID":39228,"ELEMENT_SET_NO":999,"REV_AT_EPOCH":64027,"BSTAR":0.00010261222,"MEAN_MOTION_DOT":4.15e-6,"MEAN_MOTION_DDOT":0}]
